FENGYUN 1C DEB          
1 31724U 99025CDX 17345.51712716  .00000794  00000-0  34365-3 0  9996
2 31724  97.9072 249.6322 0217412 267.1346  90.4931 14.14920717545429
